[
  {
    "CCSDS_OMM_VERS": "2.0",
    "COMMENT": "GENERATED VIA SPACE-TRACK.ORG API",
    "CREATION_DATE": "2025-03-19T17:43:14",
    "ORIGINATOR": "18 SPCS",
    "OBJECT_NAME": "NAVSTAR 72 (USA 258)",
    "OBJECT_ID": "2014-068A",
    "CENTER_NAME": "EARTH",
    "REF_FRAME": "TEME",
    "TIME_SYSTEM": "UTC",
    "MEAN_ELEMENT_THEORY": "SGP4",
    "EPOCH": "2025-03-19T05:13:55.136064",
    "MEAN_MOTION": "2.00577406",
    "ECCENTRICITY": "0.00566770",
    "INCLINATION": "56.6536",
    "RA_OF_ASC_NODE": "48.5374",
    "ARG_OF_PERICENTER": "63.6648",
    "MEAN_ANOMALY": "296.9049",
    "EPHEMERIS_TYPE": "0",
    "CLASSIFICATION_TYPE": "U",
    "NORAD_CAT_ID": "40294",
    "ELEMENT_SET_NO": "999",
    "REV_AT_EPOCH": "7608",
    "BSTAR": "0.00000000000000",
    "MEAN_MOTION_DOT": "-0.00000040",
    "MEAN_MOTION_DDOT": "0.0000000000000",
    "SEMIMAJOR_AXIS": "26559.129",
    "PERIOD": "717.927",
    "APOAPSIS": "20331.524",
    "PERIAPSIS": "20030.465",
    "OBJECT_TYPE": "PAYLOAD",
    "RCS_SIZE": "LARGE",
    "COUNTRY_CODE": "US",
    "LAUNCH_DATE": "2014-10-29",
    "SITE": "AFETR",
    "DECAY_DATE": null,
    "FILE": "4674121",
    "GP_ID": "283499138",
    "TLE_LINE0": "0 NAVSTAR 72 (USA 258)",
    "TLE_LINE1": "1 40294U 14068A   25078.21799926 -.00000040  00000-0  00000-0 0  9990",
    "TLE_LINE2": "2 40294  56.6536  48.5374 0056677  63.6648 296.9049  2.00577406 76088"
  },
  {
    "CCSDS_OMM_VERS": "2.0",
    "COMMENT": "GENERATED VIA SPACE-TRACK.ORG API",
    "CREATION_DATE": "2025-03-19T17:43:14",
    "ORIGINATOR": "18 SPCS",
    "OBJECT_NAME": "NAVSTAR 70 (USA 251)",
    "OBJECT_ID": "2014-026A",
    "CENTER_NAME": "EARTH",
    "REF_FRAME": "TEME",
    "TIME_SYSTEM": "UTC",
    "MEAN_ELEMENT_THEORY": "SGP4",
    "EPOCH": "2025-03-19T06:22:19.938720",
    "MEAN_MOTION": "2.00580610",
    "ECCENTRICITY": "0.00365900",
    "INCLINATION": "56.6689",
    "RA_OF_ASC_NODE": "349.2041",
    "ARG_OF_PERICENTER": "318.7798",
    "MEAN_ANOMALY": "40.9791",
    "EPHEMERIS_TYPE": "0",
    "CLASSIFICATION_TYPE": "U",
    "NORAD_CAT_ID": "39741",
    "ELEMENT_SET_NO": "999",
    "REV_AT_EPOCH": "7941",
    "BSTAR": "0.00000000000000",
    "MEAN_MOTION_DOT": "-0.00000091",
    "MEAN_MOTION_DDOT": "0.0000000000000",
    "SEMIMAJOR_AXIS": "26558.847",
    "PERIOD": "717.916",
    "APOAPSIS": "20277.890",
    "PERIAPSIS": "20083.533",
    "OBJECT_TYPE": "PAYLOAD",
    "RCS_SIZE": "LARGE",
    "COUNTRY_CODE": "US",
    "LAUNCH_DATE": "2014-05-17",
    "SITE": "AFETR",
    "DECAY_DATE": null,
    "FILE": "4674121",
    "GP_ID": "283497941",
    "TLE_LINE0": "0 NAVSTAR 70 (USA 251)",
    "TLE_LINE1": "1 39741U 14026A   25078.26550855 -.00000091  00000-0  00000-0 0  9996",
    "TLE_LINE2": "2 39741  56.6689 349.2041 0036590 318.7798  40.9791  2.00580610 79418"
  },
  {
    "CCSDS_OMM_VERS": "2.0",
    "COMMENT": "GENERATED VIA SPACE-TRACK.ORG API",
    "CREATION_DATE": "2025-03-19T17:43:14",
    "ORIGINATOR": "18 SPCS",
    "OBJECT_NAME": "NAVSTAR 79 (USA 304)",
    "OBJECT_ID": "2020-041A",
    "CENTER_NAME": "EARTH",
    "REF_FRAME": "TEME",
    "TIME_SYSTEM": "UTC",
    "MEAN_ELEMENT_THEORY": "SGP4",
    "EPOCH": "2025-03-19T06:50:42.707328",
    "MEAN_MOTION": "2.00568341",
    "ECCENTRICITY": "0.00513170",
    "INCLINATION": "56.3506",
    "RA_OF_ASC_NODE": "46.6482",
    "ARG_OF_PERICENTER": "199.8229",
    "MEAN_ANOMALY": "346.5644",
    "EPHEMERIS_TYPE": "0",
    "CLASSIFICATION_TYPE": "U",
    "NORAD_CAT_ID": "45854",
    "ELEMENT_SET_NO": "999",
    "REV_AT_EPOCH": "3491",
    "BSTAR": "0.00000000000000",
    "MEAN_MOTION_DOT": "-0.00000044",
    "MEAN_MOTION_DDOT": "0.0000000000000",
    "SEMIMAJOR_AXIS": "26559.930",
    "PERIOD": "717.960",
    "APOAPSIS": "20318.092",
    "PERIAPSIS": "20045.497",
    "OBJECT_TYPE": "PAYLOAD",
    "RCS_SIZE": "LARGE",
    "COUNTRY_CODE": "US",
    "LAUNCH_DATE": "2020-06-30",
    "SITE": "AFETR",
    "DECAY_DATE": null,
    "FILE": "4674121",
    "GP_ID": "283502272",
    "TLE_LINE0": "0 NAVSTAR 79 (USA 304)",
    "TLE_LINE1": "1 45854U 20041A   25078.28521652 -.00000044  00000-0  00000-0 0  9995",
    "TLE_LINE2": "2 45854  56.3506  46.6482 0051317 199.8229 346.5644  2.00568341 34918"
  },
  {
    "CCSDS_OMM_VERS": "2.0",
    "COMMENT": "GENERATED VIA SPACE-TRACK.ORG API",
    "CREATION_DATE": "2025-03-19T17:43:14",
    "ORIGINATOR": "18 SPCS",
    "OBJECT_NAME": "NAVSTAR 83 (USA 440)",
    "OBJECT_ID": "2024-242A",
    "CENTER_NAME": "EARTH",
    "REF_FRAME": "TEME",
    "TIME_SYSTEM": "UTC",
    "MEAN_ELEMENT_THEORY": "SGP4",
    "EPOCH": "2025-03-19T07:02:36.741120",
    "MEAN_MOTION": "2.00557147",
    "ECCENTRICITY": "0.00048100",
    "INCLINATION": "54.9889",
    "RA_OF_ASC_NODE": "352.6011",
    "ARG_OF_PERICENTER": "327.8323",
    "MEAN_ANOMALY": "143.4086",
    "EPHEMERIS_TYPE": "0",
    "CLASSIFICATION_TYPE": "U",
    "NORAD_CAT_ID": "62339",
    "ELEMENT_SET_NO": "999",
    "REV_AT_EPOCH": "213",
    "BSTAR": "0.00000000000000",
    "MEAN_MOTION_DOT": "-0.00000094",
    "MEAN_MOTION_DDOT": "0.0000000000000",
    "SEMIMAJOR_AXIS": "26560.918",
    "PERIOD": "718.000",
    "APOAPSIS": "20195.559",
    "PERIAPSIS": "20170.007",
    "OBJECT_TYPE": "PAYLOAD",
    "RCS_SIZE": "LARGE",
    "COUNTRY_CODE": "US",
    "LAUNCH_DATE": "2024-12-17",
    "SITE": "AFETR",
    "DECAY_DATE": null,
    "FILE": "4674121",
    "GP_ID": "283513350",
    "TLE_LINE0": "0 NAVSTAR 83 (USA 440)",
    "TLE_LINE1": "1 62339U 24242A   25078.29348080 -.00000094  00000-0  00000-0 0  9997",
    "TLE_LINE2": "2 62339  54.9889 352.6011 0004810 327.8323 143.4086  2.00557147  2130"
  },
  {
    "CCSDS_OMM_VERS": "2.0",
    "COMMENT": "GENERATED VIA SPACE-TRACK.ORG API",
    "CREATION_DATE": "2025-03-19T14:26:19",
    "ORIGINATOR": "18 SPCS",
    "OBJECT_NAME": "NAVSTAR 58 (USA 190)",
    "OBJECT_ID": "2006-042A",
    "CENTER_NAME": "EARTH",
    "REF_FRAME": "TEME",
    "TIME_SYSTEM": "UTC",
    "MEAN_ELEMENT_THEORY": "SGP4",
    "EPOCH": "2025-03-19T07:15:28.776960",
    "MEAN_MOTION": "2.00567792",
    "ECCENTRICITY": "0.01043770",
    "INCLINATION": "54.6794",
    "RA_OF_ASC_NODE": "169.3855",
    "ARG_OF_PERICENTER": "45.4131",
    "MEAN_ANOMALY": "325.7769",
    "EPHEMERIS_TYPE": "0",
    "CLASSIFICATION_TYPE": "U",
    "NORAD_CAT_ID": "29486",
    "ELEMENT_SET_NO": "999",
    "REV_AT_EPOCH": "13542",
    "BSTAR": "0.00000000000000",
    "MEAN_MOTION_DOT": "0.00000012",
    "MEAN_MOTION_DDOT": "0.0000000000000",
    "SEMIMAJOR_AXIS": "26559.978",
    "PERIOD": "717.962",
    "APOAPSIS": "20459.068",
    "PERIAPSIS": "19904.618",
    "OBJECT_TYPE": "PAYLOAD",
    "RCS_SIZE": "LARGE",
    "COUNTRY_CODE": "US",
    "LAUNCH_DATE": "2006-09-25",
    "SITE": "AFETR",
    "DECAY_DATE": null,
    "FILE": "4673862",
    "GP_ID": "283476837",
    "TLE_LINE0": "0 NAVSTAR 58 (USA 190)",
    "TLE_LINE1": "1 29486U 06042A   25078.30241640  .00000012  00000-0  00000+0 0  9995",
    "TLE_LINE2": "2 29486  54.6794 169.3855 0104377  45.4131 325.7769  2.00567792135425"
  },
  {
    "CCSDS_OMM_VERS": "2.0",
    "COMMENT": "GENERATED VIA SPACE-TRACK.ORG API",
    "CREATION_DATE": "2025-03-19T14:46:22",
    "ORIGINATOR": "18 SPCS",
    "OBJECT_NAME": "NAVSTAR 71 (USA 256)",
    "OBJECT_ID": "2014-045A",
    "CENTER_NAME": "EARTH",
    "REF_FRAME": "TEME",
    "TIME_SYSTEM": "UTC",
    "MEAN_ELEMENT_THEORY": "SGP4",
    "EPOCH": "2025-03-19T08:18:52.300224",
    "MEAN_MOTION": "2.00555077",
    "ECCENTRICITY": "0.00280650",
    "INCLINATION": "55.0669",
    "RA_OF_ASC_NODE": "106.6109",
    "ARG_OF_PERICENTER": "118.2041",
    "MEAN_ANOMALY": "242.1394",
    "EPHEMERIS_TYPE": "0",
    "CLASSIFICATION_TYPE": "U",
    "NORAD_CAT_ID": "40105",
    "ELEMENT_SET_NO": "999",
    "REV_AT_EPOCH": "7784",
    "BSTAR": "0.00000000000000",
    "MEAN_MOTION_DOT": "0.00000017",
    "MEAN_MOTION_DDOT": "0.0000000000000",
    "SEMIMAJOR_AXIS": "26561.101",
    "PERIOD": "718.007",
    "APOAPSIS": "20257.509",
    "PERIAPSIS": "20108.422",
    "OBJECT_TYPE": "PAYLOAD",
    "RCS_SIZE": "LARGE",
    "COUNTRY_CODE": "US",
    "LAUNCH_DATE": "2014-08-02",
    "SITE": "AFETR",
    "DECAY_DATE": null,
    "FILE": "4673993",
    "GP_ID": "283481368",
    "TLE_LINE0": "0 NAVSTAR 71 (USA 256)",
    "TLE_LINE1": "1 40105U 14045A   25078.34643866  .00000017  00000-0  00000+0 0  9993",
    "TLE_LINE2": "2 40105  55.0669 106.6109 0028065 118.2041 242.1394  2.00555077 77846"
  },
  {
    "CCSDS_OMM_VERS": "2.0",
    "COMMENT": "GENERATED VIA SPACE-TRACK.ORG API",
    "CREATION_DATE": "2025-03-19T17:43:14",
    "ORIGINATOR": "18 SPCS",
    "OBJECT_NAME": "NAVSTAR 48 (USA 151)",
    "OBJECT_ID": "2000-040A",
    "CENTER_NAME": "EARTH",
    "REF_FRAME": "TEME",
    "TIME_SYSTEM": "UTC",
    "MEAN_ELEMENT_THEORY": "SGP4",
    "EPOCH": "2025-03-19T08:23:49.142976",
    "MEAN_MOTION": "2.00564487",
    "ECCENTRICITY": "0.01342670",
    "INCLINATION": "54.9687",
    "RA_OF_ASC_NODE": "233.2349",
    "ARG_OF_PERICENTER": "298.5406",
    "MEAN_ANOMALY": "244.6685",
    "EPHEMERIS_TYPE": "0",
    "CLASSIFICATION_TYPE": "U",
    "NORAD_CAT_ID": "26407",
    "ELEMENT_SET_NO": "999",
    "REV_AT_EPOCH": "18082",
    "BSTAR": "0.00000000000000",
    "MEAN_MOTION_DOT": "0.00000040",
    "MEAN_MOTION_DDOT": "0.0000000000000",
    "SEMIMAJOR_AXIS": "26560.270",
    "PERIOD": "717.974",
    "APOAPSIS": "20538.752",
    "PERIAPSIS": "19825.518",
    "OBJECT_TYPE": "PAYLOAD",
    "RCS_SIZE": "LARGE",
    "COUNTRY_CODE": "US",
    "LAUNCH_DATE": "2000-07-16",
    "SITE": "AFETR",
    "DECAY_DATE": null,
    "FILE": "4674121",
    "GP_ID": "283491132",
    "TLE_LINE0": "0 NAVSTAR 48 (USA 151)",
    "TLE_LINE1": "1 26407U 00040A   25078.34987434  .00000040  00000-0  00000-0 0  9991",
    "TLE_LINE2": "2 26407  54.9687 233.2349 0134267 298.5406 244.6685  2.00564487180823"
  }
]
